{"type": "FeatureCollection", "features": [ {"type": "Feature", "properties": {"norad_id": 38818, "name": "FENGYUN 1C DEB", "group": "fengyun-1c-debris", "lat": -12.36734631326846, "lon": 41.63469274227143, "alt_km": 797.5950941681504, "timestamp": "2025-12-09T09:46:47.936695+00:00", "meta": {"OBJECT_NAME": "FENGYUN 1C DEB", "OBJECT_ID": "1999-025EVJ", "EPOCH": "2025-12-06T10:12:01.626048", "MEAN_MOTION": 14.3946, "ECCENTRICITY": 0.00901356, "INCLINATION": 98.298, "RA_OF_ASC_NODE": 36.9131, "ARG_OF_PERICENTER": 117.8353, "MEAN_ANOMALY": 264.169, "EPHEMERIS_TYPE": 0, "CLASSIFICATION_TYPE": "U", "NORAD_CAT_ID": 38818, "ELEMENT_SET_NO": 999, "REV_AT_EPOCH": 67157, "BSTAR": 0.00089213559, "MEAN_MOTION_DOT": 2.872e-05, "MEAN_MOTION_DDOT": 0}, "tle": {"line1": "1 38818U 99025EVJ 25340.42501882  .00002872  00000+0  89214-3 0  9992", "line2": "2 38818  98.2980  36.9131 0090135 117.8353 264.1690 14.39460000671576"}}, "geometry": {"type": "Point", "coordinates": [41.63469274227143, -12.36734631326846]}}, {"type": "Feature", "properties": {"norad_id": 38819, "name": "FENGYUN 1C DEB", "group": "fengyun-1c-debris", "lat": -10.296202214946778, "lon": 154.73208515984922, "alt_km": 776.1013023834985, "timestamp": "2025-12-09T09:46:47.936706+00:00", "meta": {"OBJECT_NAME": "FENGYUN 1C DEB", "OBJECT_ID": "1999-025EVK", "EPOCH": "2025-12-05T17:44:45.178656", "MEAN_MOTION": 14.19352326, "ECCENTRICITY": 0.00793982, "INCLINATION": 98.6175, "RA_OF_ASC_NODE": 332.7424, "ARG_OF_PERICENTER": 214.8039, "MEAN_ANOMALY": 323.5095, "EPHEMERIS_TYPE": 0, "CLASSIFICATION_TYPE": "U", "NORAD_CAT_ID": 38819, "ELEMENT_SET_NO": 999, "REV_AT_EPOCH": 63378, "BSTAR": 0.00071386354, "MEAN_MOTION_DOT": 1.505e-05, "MEAN_MOTION_DDOT": 0}, "tle": {"line1": "1 38819U 99025EVK 25339.73941179  .00001505  00000+0  71386-3 0  9995", "line2": "2 38819  98.6175 332.7424 0079398 214.8039 323.5095 14.19352326633785"}}, "geometry": {"type": "Point", "coordinates": [154.73208515984922, -10.296202214946778]}}, {"type": "Feature", "properties": {"norad_id": 38824, "name": "FENGYUN 1C DEB", "group": "fengyun-1c-debris", "lat": -74.5716691046725, "lon": 153.2460961739758, "alt_km": 830.4505639723966, "timestamp": "2025-12-09T09:46:47.936717+00:00", "meta": {"OBJECT_NAME": "FENGYUN 1C DEB", "OBJECT_ID": "1999-025EVQ", "EPOCH": "2025-11-20T14:24:21.461760", "MEAN_MOTION": 14.13875773, "ECCENTRICITY": 0.00960414, "INCLINATION": 99.2955, "RA_OF_ASC_NODE": 97.2934, "ARG_OF_PERICENTER": 263.2679, "MEAN_ANOMALY": 95.7556, "EPHEMERIS_TYPE": 0, "CLASSIFICATION_TYPE": "U", "NORAD_CAT_ID": 38824, "ELEMENT_SET_NO": 999, "REV_AT_EPOCH": 68824, "BSTAR": 0.0027703315, "MEAN_MOTION_DOT": 5.443e-05, "MEAN_MOTION_DDOT": 0}, "tle": {"line1": "1 38824U 99025EVQ 25324.60024840  .00005443  00000+0  27703-2 0  9996", "line2": "2 38824  99.2955  97.2934 0096041 263.2679  95.7556 14.13875773688246"}}, "geometry": {"type": "Point", "coordinates": [153.2460961739758, -74.5716691046725]}}, {"type": "Feature", "properties": {"norad_id": 38827, "name": "FENGYUN 1C DEB", "group": "fengyun-1c-debris", "lat": -31.905754938632683, "lon": 11.708636678002618, "alt_km": 633.7970318410398, "timestamp": "2025-12-09T09:46:47.936729+00:00", "meta": {"OBJECT_NAME": "FENGYUN 1C DEB", "OBJECT_ID": "1999-025EVT", "EPOCH": "2025-12-07T19:22:38.841600", "MEAN_MOTION": 14.3280531, "ECCENTRICITY": 0.02166081, "INCLINATION": 98.387, "RA_OF_ASC_NODE": 4.8884, "ARG_OF_PERICENTER": 327.6177, "MEAN_ANOMALY": 31.1865, "EPHEMERIS_TYPE": 0, "CLASSIFICATION_TYPE": "U", "NORAD_CAT_ID": 38827, "ELEMENT_SET_NO": 999, "REV_AT_EPOCH": 60989, "BSTAR": 0.0016159836, "MEAN_MOTION_DOT": 5.673e-05, "MEAN_MOTION_DDOT": 0}, "tle": {"line1": "1 38827U 99025EVT 25341.80739400  .00005673  00000+0  16160-2 0  9995", "line2": "2 38827  98.3870   4.8884 0216608 327.6177  31.1865 14.32805310609896"}}, "geometry": {"type": "Point", "coordinates": [11.708636678002618, -31.905754938632683]}}, {"type": "Feature", "properties": {"norad_id": 38829, "name": "FENGYUN 1C DEB", "group": "fengyun-1c-debris", "lat": -10.698366379031318, "lon": 177.8084846084649, "alt_km": 892.3165529191501, "timestamp": "2025-12-09T09:46:47.936739+00:00", "meta": {"OBJECT_NAME": "FENGYUN 1C DEB", "OBJECT_ID": "1999-025EVV", "EPOCH": "2025-12-09T00:21:36.739584", "MEAN_MOTION": 14.09204393, "ECCENTRICITY": 0.0041284, "INCLINATION": 98.7497, "RA_OF_ASC_NODE": 359.0946, "ARG_OF_PERICENTER": 41.119, "MEAN_ANOMALY": 319.3079, "EPHEMERIS_TYPE": 0, "CLASSIFICATION_TYPE": "U", "NORAD_CAT_ID": 38829, "ELEMENT_SET_NO": 999, "REV_AT_EPOCH": 64080, "BSTAR": 0.00074065, "MEAN_MOTION_DOT": 1.255e-05, "MEAN_MOTION_DDOT": 0}, "tle": {"line1": "1 38829U 99025EVV 25343.01500856  .00001255  00000+0  74065-3 0  9994", "line2": "2 38829  98.7497 359.0946 0041284  41.1190 319.3079 14.09204393640802"}}, "geometry": {"type": "Point", "coordinates": [177.8084846084649, -10.698366379031318]}}, {"type": "Feature", "properties": {"norad_id": 38832, "name": "FENGYUN 1C DEB", "group": "fengyun-1c-debris", "lat": -36.092023929464354, "lon": 34.54303689828723, "alt_km": 882.7413826683032, "timestamp": "2025-12-09T09:46:47.936750+00:00", "meta": {"OBJECT_NAME": "FENGYUN 1C DEB", "OBJECT_ID": "1999-025EVY", "EPOCH": "2025-12-06T01:35:41.081280", "MEAN_MOTION": 14.04461067, "ECCENTRICITY": 0.00842955, "INCLINATION": 99.2666, "RA_OF_ASC_NODE": 24.2995, "ARG_OF_PERICENTER": 61.4582, "MEAN_ANOMALY": 299.5038, "EPHEMERIS_TYPE": 0, "CLASSIFICATION_TYPE": "U", "NORAD_CAT_ID": 38832, "ELEMENT_SET_NO": 999, "REV_AT_EPOCH": 63664, "BSTAR": 0.0018423355, "MEAN_MOTION_DOT": 2.987e-05, "MEAN_MOTION_DDOT": 0}, "tle": {"line1": "1 38832U 99025EVY 25340.06644770  .00002987  00000+0  18423-2 0  9992", "line2": "2 38832  99.2666  24.2995 0084295  61.4582 299.5038 14.04461067636643"}}, "geometry": {"type": "Point", "coordinates": [34.54303689828723, -36.092023929464354]}}, {"type": "Feature", "properties": {"norad_id": 39537, "name": "FENGYUN 1C DEB", "group": "fengyun-1c-debris", "lat": 53.93388326307108, "lon": 116.44881347971184, "alt_km": 886.9012751018527, "timestamp": "2025-12-09T09:46:47.936761+00:00", "meta": {"OBJECT_NAME": "FENGYUN 1C DEB", "OBJECT_ID": "1999-025EWE", "EPOCH": "2025-12-08T16:10:28.003008", "MEAN_MOTION": 13.84154142, "ECCENTRICITY": 0.01774078, "INCLINATION": 99.1538, "RA_OF_ASC_NODE": 128.5243, "ARG_OF_PERICENTER": 352.1329, "MEAN_ANOMALY": 7.7052, "EPHEMERIS_TYPE": 0, "CLASSIFICATION_TYPE": "U", "NORAD_CAT_ID": 39537, "ELEMENT_SET_NO": 999, "REV_AT_EPOCH": 59200, "BSTAR": 0.0019509183, "MEAN_MOTION_DOT": 2.413e-05, "MEAN_MOTION_DDOT": 0}, "tle": {"line1": "1 39537U 99025EWE 25342.67393522  .00002413  00000+0  19509-2 0  9990", "line2": "2 39537  99.1538 128.5243 0177407 352.1329   7.7052 13.84154142592000"}}, "geometry": {"type": "Point", "coordinates": [116.44881347971184, 53.93388326307108]}}, {"type": "Feature", "properties": {"norad_id": 39541, "name": "FENGYUN 1C DEB", "group": "fengyun-1c-debris", "lat": 59.744991801712956, "lon": 10.392656568229894, "alt_km": 769.8202656776157, "timestamp": "2025-12-09T09:46:47.936771+00:00", "meta": {"OBJECT_NAME": "FENGYUN 1C DEB", "OBJECT_ID": "1999-025EWJ", "EPOCH": "2025-11-26T08:43:14.269440", "MEAN_MOTION": 14.20329557, "ECCENTRICITY": 0.00721468, "INCLINATION": 98.6819, "RA_OF_ASC_NODE": 12.7746, "ARG_OF_PERICENTER": 119.8468, "MEAN_ANOMALY": 240.9905, "EPHEMERIS_TYPE": 0, "CLASSIFICATION_TYPE": "U", "NORAD_CAT_ID": 39541, "ELEMENT_SET_NO": 999, "REV_AT_EPOCH": 58770, "BSTAR": 0.00069059031, "MEAN_MOTION_DOT": 1.475e-05, "MEAN_MOTION_DDOT": 0}, "tle": {"line1": "1 39541U 99025EWJ 25330.36335960  .00001475  00000+0  69059-3 0  9993", "line2": "2 39541  98.6819  12.7746 0072146 119.8468 240.9905 14.20329557587703"}}, "geometry": {"type": "Point", "coordinates": [10.392656568229894, 59.744991801712956]}}, {"type": "Feature", "properties": {"norad_id": 39543, "name": "FENGYUN 1C DEB", "group": "fengyun-1c-debris", "lat": 66.24068206027414, "lon": -145.3418826776329, "alt_km": 794.3262313862133, "timestamp": "2025-12-09T09:46:47.936782+00:00", "meta": {"OBJECT_NAME": "FENGYUN 1C DEB", "OBJECT_ID": "1999-025EWL", "EPOCH": "2025-12-08T19:12:44.181504", "MEAN_MOTION": 13.70177862, "ECCENTRICITY": 0.03392505, "INCLINATION": 99.0425, "RA_OF_ASC_NODE": 12.879, "ARG_OF_PERICENTER": 152.5087, "MEAN_ANOMALY": 209.4469, "EPHEMERIS_TYPE": 0, "CLASSIFICATION_TYPE": "U", "NORAD_CAT_ID": 39543, "ELEMENT_SET_NO": 999, "REV_AT_EPOCH": 49131, "BSTAR": 0.0015085233, "MEAN_MOTION_DOT": 1.956e-05, "MEAN_MOTION_DDOT": 0}, "tle": {"line1": "1 39543U 99025EWL 25342.80051136  .00001956  00000+0  15085-2 0  9990", "line2": "2 39543  99.0425  12.8790 0339250 152.5087 209.4469 13.70177862491316"}}, "geometry": {"type": "Point", "coordinates": [-145.3418826776329, 66.24068206027414]}}, {"type": "Feature", "properties": {"norad_id": 39544, "name": "FENGYUN 1C DEB", "group": "fengyun-1c-debris", "lat": 74.25185120561167, "lon": 75.73329228939073, "alt_km": 863.7166257373365, "timestamp": "2025-12-09T09:46:47.936793+00:00", "meta": {"OBJECT_NAME": "FENGYUN 1C DEB", "OBJECT_ID": "1999-025EWM", "EPOCH": "2025-12-08T09:22:33.750624", "MEAN_MOTION": 14.05512501, "ECCENTRICITY": 0.00547745, "INCLINATION": 98.7418, "RA_OF_ASC_NODE": 221.6849, "ARG_OF_PERICENTER": 21.3384, "MEAN_ANOMALY": 339.0051, "EPHEMERIS_TYPE": 0, "CLASSIFICATION_TYPE": "U", "NORAD_CAT_ID": 39544, "ELEMENT_SET_NO": 999, "REV_AT_EPOCH": 56794, "BSTAR": 0.00088149338, "MEAN_MOTION_DOT": 1.41e-05, "MEAN_MOTION_DDOT": 0}, "tle": {"line1": "1 39544U 99025EWM 25342.39066841  .00001410  00000+0  88149-3 0  9991", "line2": "2 39544  98.7418 221.6849 0054774  21.3384 339.0051 14.05512501567940"}}, "geometry": {"type": "Point", "coordinates": [75.73329228939073, 74.25185120561167]}}]}